KUIPER-00167            
1 65780U 25217U   26023.87450807 -.00015425  00000+0 -20029-2 0  9998
2 65780  51.8959 243.7560 0000781  88.7592 271.3460 14.79850961 18201
KUIPER-00168            
1 65781U 25217V   26024.50001156 -.00969571  00000+0 -11765+0 0  9993
2 65781  51.9419 223.6958 0000608   3.7722 250.9011 14.86199714  5382
KUIPER-00169            
1 65782U 25217W   26024.50001156  .00028800  00000+0  37803-2 0  9997
2 65782  51.8993 228.5065 0001060 126.9248 255.5599 14.80047614  4742
KUIPER-00170            
1 65783U 25217X   26024.28766736  .00005119  00000+0  69962-3 0  9995
2 65783  51.8975 234.4396 0001110  86.4587 273.6502 14.79956179 18370
KUIPER-00172            
1 65785U 25217Z   26023.83321888  .00019314  00000+0  92866-3 0  9993
2 65785  51.8782 224.8967 0004658 170.1592 189.9479 15.18804806 18467
KUIPER-00173            
1 65786U 25217AA  26024.52637642  .00004371  00000+0  56894-3 0  9997
2 65786  51.9010 228.3591 0001086 103.6009 256.5076 14.82339573 18470
KUIPER-00174            
1 65787U 25217AB  26024.50001156 -.00000660  00000+0 -48120-4 0  9994
2 65787  51.8988 223.7451 0002086 316.4612 106.8243 14.86170036  5787
